{
"type": "FeatureCollection",
"name": "Amenities",
"crs": { "type": "name", "properties": { "name": "urn:ogc:def:crs:OGC:1.3:CRS84" } },
"features": [
{ "type": "Feature", "properties": { "Type": "Office" }, "geometry": { "type": "MultiPoint", "coordinates": [ [ 174.46742279289046, -35.505059414819655 ] ] } },
{ "type": "Feature", "properties": { "Type": "Rubbish" }, "geometry": { "type": "MultiPoint", "coordinates": [ [ 174.467304807442957, -35.505907856402338 ] ] } },
{ "type": "Feature", "properties": { "Type": "WiFi" }, "geometry": { "type": "MultiPoint", "coordinates": [ [ 174.467412321922438, -35.505449349161111 ] ] } },
{ "type": "Feature", "properties": { "Type": "Toilets" }, "geometry": { "type": "MultiPoint", "coordinates": [ [ 174.472167029304416, -35.50978772835041 ] ] } },
{ "type": "Feature", "properties": { "Type": "Toilets" }, "geometry": { "type": "MultiPoint", "coordinates": [ [ 174.473230330383302, -35.510332855178405 ] ] } },
{ "type": "Feature", "properties": { "Type": "Toilets" }, "geometry": { "type": "MultiPoint", "coordinates": [ [ 174.47257720877198, -35.510568738591758 ] ] } },
{ "type": "Feature", "properties": { "Type": "Toilets" }, "geometry": { "type": "MultiPoint", "coordinates": [ [ 174.471408800372075, -35.511294266795055 ] ] } },
{ "type": "Feature", "properties": { "Type": "Water" }, "geometry": { "type": "MultiPoint", "coordinates": [ [ 174.471846053098744, -35.511560828322487 ] ] } },
{ "type": "Feature", "properties": { "Type": "Water" }, "geometry": { "type": "MultiPoint", "coordinates": [ [ 174.472547543335224, -35.510553828325143 ] ] } },
{ "type": "Feature", "properties": { "Type": "Water" }, "geometry": { "type": "MultiPoint", "coordinates": [ [ 174.472744174815858, -35.509770337745906 ] ] } },
{ "type": "Feature", "properties": { "Type": "Water" }, "geometry": { "type": "MultiPoint", "coordinates": [ [ 174.473201029306011, -35.51036963504756 ] ] } },
{ "type": "Feature", "properties": { "Type": "Water" }, "geometry": { "type": "MultiPoint", "coordinates": [ [ 174.472115568859408, -35.509820022912393 ] ] } },
{ "type": "Feature", "properties": { "Type": "Water" }, "geometry": { "type": "MultiPoint", "coordinates": [ [ 174.473018621249196, -35.510773218187296 ] ] } },
{ "type": "Feature", "properties": { "Type": "Showers" }, "geometry": { "type": "MultiPoint", "coordinates": [ [ 174.4718573543459, -35.511537097679295 ] ] } },
{ "type": "Feature", "properties": { "Type": "Showers" }, "geometry": { "type": "MultiPoint", "coordinates": [ [ 174.472598937809408, -35.510587681002114 ] ] } },
{ "type": "Feature", "properties": { "Type": "Showers" }, "geometry": { "type": "MultiPoint", "coordinates": [ [ 174.47284131257814, -35.509849908302641 ] ] } },
{ "type": "Feature", "properties": { "Type": "Showers" }, "geometry": { "type": "MultiPoint", "coordinates": [ [ 174.473246715881174, -35.510267564228585 ] ] } },
{ "type": "Feature", "properties": { "Type": "Recycling" }, "geometry": { "type": "MultiPoint", "coordinates": [ [ 174.467325617215437, -35.505967618014566 ] ] } },
{ "type": "Feature", "properties": { "Type": "Charging" }, "geometry": { "type": "MultiPoint", "coordinates": [ [ 174.467473454716782, -35.505532220022573 ] ] } }
]
}
