{
"type": "FeatureCollection",
"name": "SiteNumbers",
"crs": { "type": "name", "properties": { "name": "urn:ogc:def:crs:OGC:1.3:CRS84" } },
"features": [
{ "type": "Feature", "properties": { "SiteNum": "1", "Area": "KING'S OCEAN" }, "geometry": { "type": "MultiPoint", "coordinates": [ [ 174.473811079356636, -35.510332267762315 ] ] } },
{ "type": "Feature", "properties": { "SiteNum": "2", "Area": "KING'S OCEAN" }, "geometry": { "type": "MultiPoint", "coordinates": [ [ 174.47371433264837, -35.510365268938152 ] ] } },
{ "type": "Feature", "properties": { "SiteNum": "3", "Area": "KING'S OCEAN" }, "geometry": { "type": "MultiPoint", "coordinates": [ [ 174.47362053794663, -35.510402154540863 ] ] } },
{ "type": "Feature", "properties": { "SiteNum": "4", "Area": "KING'S OCEAN" }, "geometry": { "type": "MultiPoint", "coordinates": [ [ 174.473519616886733, -35.510442660707902 ] ] } },
{ "type": "Feature", "properties": { "SiteNum": "5", "Area": "KING'S OCEAN" }, "geometry": { "type": "MultiPoint", "coordinates": [ [ 174.473425245345851, -35.51047445477878 ] ] } },
{ "type": "Feature", "properties": { "SiteNum": "6", "Area": "KING'S OCEAN" }, "geometry": { "type": "MultiPoint", "coordinates": [ [ 174.473329074949987, -35.51051254703701 ] ] } },
{ "type": "Feature", "properties": { "SiteNum": "7", "Area": "KING'S OCEAN" }, "geometry": { "type": "MultiPoint", "coordinates": [ [ 174.473252738452317, -35.510559407520667 ] ] } },
{ "type": "Feature", "properties": { "SiteNum": "8", "Area": "KING'S OCEAN" }, "geometry": { "type": "MultiPoint", "coordinates": [ [ 174.473184104807643, -35.510607738727643 ] ] } },
{ "type": "Feature", "properties": { "SiteNum": "9", "Area": "KING'S OCEAN" }, "geometry": { "type": "MultiPoint", "coordinates": [ [ 174.47311989919163, -35.510661896669994 ] ] } },
{ "type": "Feature", "properties": { "SiteNum": "10", "Area": "KING'S OCEAN" }, "geometry": { "type": "MultiPoint", "coordinates": [ [ 174.473041118087139, -35.510731536310686 ] ] } },
{ "type": "Feature", "properties": { "SiteNum": "11", "Area": "KING'S OCEAN" }, "geometry": { "type": "MultiPoint", "coordinates": [ [ 174.47297093921074, -35.510799497558139 ] ] } },
{ "type": "Feature", "properties": { "SiteNum": "13", "Area": "KING'S OCEAN" }, "geometry": { "type": "MultiPoint", "coordinates": [ [ 174.472827347350631, -35.510463240510092 ] ] } },
{ "type": "Feature", "properties": { "SiteNum": "14", "Area": "KING'S OCEAN" }, "geometry": { "type": "MultiPoint", "coordinates": [ [ 174.472923586877613, -35.51040357623075 ] ] } },
{ "type": "Feature", "properties": { "SiteNum": "15", "Area": "KING'S OCEAN" }, "geometry": { "type": "MultiPoint", "coordinates": [ [ 174.473043580542623, -35.510331843188247 ] ] } },
{ "type": "Feature", "properties": { "SiteNum": "16", "Area": "KING'S OCEAN" }, "geometry": { "type": "MultiPoint", "coordinates": [ [ 174.473145723871511, -35.510279947773022 ] ] } },
{ "type": "Feature", "properties": { "SiteNum": "17", "Area": "KING'S OCEAN" }, "geometry": { "type": "MultiPoint", "coordinates": [ [ 174.473013937008488, -35.509681936668386 ] ] } },
{ "type": "Feature", "properties": { "SiteNum": "9", "Area": "KING'S OCEAN" }, "geometry": { "type": "MultiPoint", "coordinates": [ [ 174.473036120863441, -35.509511827404928 ] ] } },
{ "type": "Feature", "properties": { "SiteNum": "10", "Area": "KING'S OCEAN" }, "geometry": { "type": "MultiPoint", "coordinates": [ [ 174.472946040351758, -35.509592592701445 ] ] } },
{ "type": "Feature", "properties": { "SiteNum": "11", "Area": "KING'S OCEAN" }, "geometry": { "type": "MultiPoint", "coordinates": [ [ 174.472708545994465, -35.509791328328262 ] ] } },
{ "type": "Feature", "properties": { "SiteNum": "12", "Area": "KING'S OCEAN" }, "geometry": { "type": "MultiPoint", "coordinates": [ [ 174.47262533731805, -35.509855140904506 ] ] } },
{ "type": "Feature", "properties": { "SiteNum": "13", "Area": "KING'S OCEAN" }, "geometry": { "type": "MultiPoint", "coordinates": [ [ 174.472544503933364, -35.509917746566586 ] ] } },
{ "type": "Feature", "properties": { "SiteNum": "14", "Area": "KING'S OCEAN" }, "geometry": { "type": "MultiPoint", "coordinates": [ [ 174.47247317212927, -35.509975524745521 ] ] } },
{ "type": "Feature", "properties": { "SiteNum": "15", "Area": "KING'S OCEAN" }, "geometry": { "type": "MultiPoint", "coordinates": [ [ 174.472408643677113, -35.510037922829177 ] ] } },
{ "type": "Feature", "properties": { "SiteNum": "16", "Area": "KING'S OCEAN" }, "geometry": { "type": "MultiPoint", "coordinates": [ [ 174.472313557345444, -35.510107769482936 ] ] } },
{ "type": "Feature", "properties": { "SiteNum": "17", "Area": "KING'S OCEAN" }, "geometry": { "type": "MultiPoint", "coordinates": [ [ 174.472194439271874, -35.509998681917857 ] ] } },
{ "type": "Feature", "properties": { "SiteNum": "18", "Area": "KING'S OCEAN" }, "geometry": { "type": "MultiPoint", "coordinates": [ [ 174.472271744431197, -35.509927100552751 ] ] } },
{ "type": "Feature", "properties": { "SiteNum": "19", "Area": "KING'S OCEAN" }, "geometry": { "type": "MultiPoint", "coordinates": [ [ 174.472364455168076, -35.509858460789999 ] ] } },
{ "type": "Feature", "properties": { "SiteNum": "20", "Area": "KING'S OCEAN" }, "geometry": { "type": "MultiPoint", "coordinates": [ [ 174.472024422713048, -35.509861610434797 ] ] } },
{ "type": "Feature", "properties": { "SiteNum": "18", "Area": "KING'S OCEAN" }, "geometry": { "type": "MultiPoint", "coordinates": [ [ 174.472669609415533, -35.510309835026781 ] ] } },
{ "type": "Feature", "properties": { "SiteNum": "21", "Area": "KING'S OCEAN" }, "geometry": { "type": "MultiPoint", "coordinates": [ [ 174.471996874625546, -35.50997050497584 ] ] } },
{ "type": "Feature", "properties": { "SiteNum": "22", "Area": "KING'S OCEAN" }, "geometry": { "type": "MultiPoint", "coordinates": [ [ 174.472045098352368, -35.510185606917396 ] ] } },
{ "type": "Feature", "properties": { "SiteNum": "53", "Area": "KING'S RIVERSIDE" }, "geometry": { "type": "MultiPoint", "coordinates": [ [ 174.472223141400519, -35.510315908664715 ] ] } },
{ "type": "Feature", "properties": { "SiteNum": "32", "Area": "KING'S BAYOU" }, "geometry": { "type": "MultiPoint", "coordinates": [ [ 174.472790739898556, -35.510902491167286 ] ] } },
{ "type": "Feature", "properties": { "SiteNum": "33", "Area": "KING'S CLIFF" }, "geometry": { "type": "MultiPoint", "coordinates": [ [ 174.47272973966642, -35.510973865336439 ] ] } },
{ "type": "Feature", "properties": { "SiteNum": "34", "Area": "KING'S CLIFF" }, "geometry": { "type": "MultiPoint", "coordinates": [ [ 174.472651788336862, -35.511061928025015 ] ] } },
{ "type": "Feature", "properties": { "SiteNum": "35", "Area": "KING'S CLIFF" }, "geometry": { "type": "MultiPoint", "coordinates": [ [ 174.472568832129753, -35.51113907248434 ] ] } },
{ "type": "Feature", "properties": { "SiteNum": "36", "Area": "KING'S CLIFF" }, "geometry": { "type": "MultiPoint", "coordinates": [ [ 174.472484722557425, -35.511206034110621 ] ] } },
{ "type": "Feature", "properties": { "SiteNum": "37", "Area": "KING'S CLIFF" }, "geometry": { "type": "MultiPoint", "coordinates": [ [ 174.472383730826152, -35.511268111776729 ] ] } },
{ "type": "Feature", "properties": { "SiteNum": "38", "Area": "KING'S CLIFF" }, "geometry": { "type": "MultiPoint", "coordinates": [ [ 174.472263227702342, -35.511313180391404 ] ] } },
{ "type": "Feature", "properties": { "SiteNum": "39", "Area": "KING'S CLIFF" }, "geometry": { "type": "MultiPoint", "coordinates": [ [ 174.472134121997897, -35.511359927175448 ] ] } },
{ "type": "Feature", "properties": { "SiteNum": "57", "Area": "KING'S CLIFF" }, "geometry": { "type": "MultiPoint", "coordinates": [ [ 174.471753816662329, -35.510885484731034 ] ] } },
{ "type": "Feature", "properties": { "SiteNum": "56", "Area": "KING'S CLIFF" }, "geometry": { "type": "MultiPoint", "coordinates": [ [ 174.471808083456466, -35.510787918636325 ] ] } },
{ "type": "Feature", "properties": { "SiteNum": "55", "Area": "KING'S CLIFF" }, "geometry": { "type": "MultiPoint", "coordinates": [ [ 174.471860043885812, -35.510669986943313 ] ] } },
{ "type": "Feature", "properties": { "SiteNum": "54", "Area": "KING'S CLIFF" }, "geometry": { "type": "MultiPoint", "coordinates": [ [ 174.471916570600598, -35.510514737204396 ] ] } },
{ "type": "Feature", "properties": { "SiteNum": "46", "Area": "KING'S CLIFF" }, "geometry": { "type": "MultiPoint", "coordinates": [ [ 174.471798350062301, -35.511234377229734 ] ] } },
{ "type": "Feature", "properties": { "SiteNum": "47", "Area": "KING'S CLIFF" }, "geometry": { "type": "MultiPoint", "coordinates": [ [ 174.47190326291306, -35.511151463048996 ] ] } },
{ "type": "Feature", "properties": { "SiteNum": "48", "Area": "KING'S CLIFF" }, "geometry": { "type": "MultiPoint", "coordinates": [ [ 174.471978516817614, -35.511072848186359 ] ] } },
{ "type": "Feature", "properties": { "SiteNum": "49", "Area": "KING'S CLIFF" }, "geometry": { "type": "MultiPoint", "coordinates": [ [ 174.472044914467432, -35.510982579652918 ] ] } },
{ "type": "Feature", "properties": { "SiteNum": "50", "Area": "KING'S CLIFF" }, "geometry": { "type": "MultiPoint", "coordinates": [ [ 174.472125749290058, -35.510919974301395 ] ] } },
{ "type": "Feature", "properties": { "SiteNum": "51", "Area": "KING'S CLIFF" }, "geometry": { "type": "MultiPoint", "coordinates": [ [ 174.472200749037341, -35.510828027401885 ] ] } },
{ "type": "Feature", "properties": { "SiteNum": "52", "Area": "KING'S CLIFF" }, "geometry": { "type": "MultiPoint", "coordinates": [ [ 174.472271897145419, -35.510735345044587 ] ] } },
{ "type": "Feature", "properties": { "SiteNum": "40", "Area": "KING'S CLIFF" }, "geometry": { "type": "MultiPoint", "coordinates": [ [ 174.471659602749156, -35.511606388081113 ] ] } },
{ "type": "Feature", "properties": { "SiteNum": "41", "Area": "KING'S CLIFF" }, "geometry": { "type": "MultiPoint", "coordinates": [ [ 174.471424706555098, -35.511639575635563 ] ] } },
{ "type": "Feature", "properties": { "SiteNum": "42A", "Area": "KING'S CLIFF" }, "geometry": { "type": "MultiPoint", "coordinates": [ [ 174.470898526730934, -35.511540761460282 ] ] } },
{ "type": "Feature", "properties": { "SiteNum": "43", "Area": "KING'S CLIFF" }, "geometry": { "type": "MultiPoint", "coordinates": [ [ 174.470968777472137, -35.511451228944964 ] ] } },
{ "type": "Feature", "properties": { "SiteNum": "45", "Area": "KING'S CLIFF" }, "geometry": { "type": "MultiPoint", "coordinates": [ [ 174.471644889425107, -35.511387722145493 ] ] } },
{ "type": "Feature", "properties": { "SiteNum": "44", "Area": "KING'S CLIFF" }, "geometry": { "type": "MultiPoint", "coordinates": [ [ 174.471522333126131, -35.511425756362456 ] ] } },
{ "type": "Feature", "properties": { "SiteNum": "23", "Area": "KING'S CLIFF" }, "geometry": { "type": "MultiPoint", "coordinates": [ [ 174.47256826791795, -35.509647897916373 ] ] } },
{ "type": "Feature", "properties": { "SiteNum": "24", "Area": "KING'S CLIFF" }, "geometry": { "type": "MultiPoint", "coordinates": [ [ 174.472458560279335, -35.509655177175212 ] ] } },
{ "type": "Feature", "properties": { "SiteNum": "25", "Area": "KING'S CLIFF" }, "geometry": { "type": "MultiPoint", "coordinates": [ [ 174.472358354294073, -35.509657628912876 ] ] } },
{ "type": "Feature", "properties": { "SiteNum": "26", "Area": "KING'S CLIFF" }, "geometry": { "type": "MultiPoint", "coordinates": [ [ 174.47221610555485, -35.509643750470943 ] ] } },
{ "type": "Feature", "properties": { "SiteNum": "27", "Area": "KING'S CLIFF" }, "geometry": { "type": "MultiPoint", "coordinates": [ [ 174.472086702569356, -35.509599116063043 ] ] } },
{ "type": "Feature", "properties": { "SiteNum": "28", "Area": "KING'S CLIFF" }, "geometry": { "type": "MultiPoint", "coordinates": [ [ 174.471978101965391, -35.50953852848675 ] ] } },
{ "type": "Feature", "properties": { "SiteNum": "29", "Area": "KING'S CLIFF" }, "geometry": { "type": "MultiPoint", "coordinates": [ [ 174.471851466818549, -35.509462874028138 ] ] } },
{ "type": "Feature", "properties": { "SiteNum": "30", "Area": "KING'S CLIFF" }, "geometry": { "type": "MultiPoint", "coordinates": [ [ 174.471725154810031, -35.509378978914292 ] ] } },
{ "type": "Feature", "properties": { "SiteNum": "37", "Area": "KING'S CLIFF" }, "geometry": { "type": "MultiPoint", "coordinates": [ [ 174.471600572652022, -35.509310357851341 ] ] } },
{ "type": "Feature", "properties": { "SiteNum": "32", "Area": "KING'S CLIFF" }, "geometry": { "type": "MultiPoint", "coordinates": [ [ 174.471486968357709, -35.509238851579987 ] ] } },
{ "type": "Feature", "properties": { "SiteNum": "33", "Area": "KING'S CLIFF" }, "geometry": { "type": "MultiPoint", "coordinates": [ [ 174.471358465859595, -35.50919106724416 ] ] } },
{ "type": "Feature", "properties": { "SiteNum": "34", "Area": "KING'S CLIFF" }, "geometry": { "type": "MultiPoint", "coordinates": [ [ 174.471235867364129, -35.509151051899039 ] ] } },
{ "type": "Feature", "properties": { "SiteNum": "35", "Area": "KING'S CLIFF" }, "geometry": { "type": "MultiPoint", "coordinates": [ [ 174.471124500171044, -35.509121483301193 ] ] } },
{ "type": "Feature", "properties": { "SiteNum": "36", "Area": "KING'S CLIFF" }, "geometry": { "type": "MultiPoint", "coordinates": [ [ 174.470999526466528, -35.509082674541425 ] ] } },
{ "type": "Feature", "properties": { "SiteNum": "42", "Area": "KING'S CLIFF" }, "geometry": { "type": "MultiPoint", "coordinates": [ [ 174.471191286162679, -35.511674705018443 ] ] } },
{ "type": "Feature", "properties": { "SiteNum": "37", "Area": "KING'S CLIFF" }, "geometry": { "type": "MultiPoint", "coordinates": [ [ 174.470894386250393, -35.509052634354269 ] ] } },
{ "type": "Feature", "properties": { "SiteNum": "38", "Area": "KING'S CLIFF" }, "geometry": { "type": "MultiPoint", "coordinates": [ [ 174.470804778354164, -35.509032201886718 ] ] } },
{ "type": "Feature", "properties": { "SiteNum": "41", "Area": "KING'S CLIFF" }, "geometry": { "type": "MultiPoint", "coordinates": [ [ 174.471162491876584, -35.509429277298658 ] ] } },
{ "type": "Feature", "properties": { "SiteNum": "40", "Area": "KING'S CLIFF" }, "geometry": { "type": "MultiPoint", "coordinates": [ [ 174.471073968689439, -35.509301954029894 ] ] } },
{ "type": "Feature", "properties": { "SiteNum": "39", "Area": "KING'S CLIFF" }, "geometry": { "type": "MultiPoint", "coordinates": [ [ 174.470981236688999, -35.509192921961258 ] ] } },
{ "type": "Feature", "properties": { "SiteNum": "42", "Area": "KING'S CLIFF" }, "geometry": { "type": "MultiPoint", "coordinates": [ [ 174.470764160725338, -35.509355703121521 ] ] } },
{ "type": "Feature", "properties": { "SiteNum": "2", "Area": "KING'S CLIFF" }, "geometry": { "type": "MultiPoint", "coordinates": [ [ 174.472108183852356, -35.507753494942847 ] ] } },
{ "type": "Feature", "properties": { "SiteNum": "3", "Area": "KING'S CLIFF" }, "geometry": { "type": "MultiPoint", "coordinates": [ [ 174.472168583111653, -35.508053943798892 ] ] } },
{ "type": "Feature", "properties": { "SiteNum": "1", "Area": "KING'S CLIFF" }, "geometry": { "type": "MultiPoint", "coordinates": [ [ 174.471846362314693, -35.507959205951046 ] ] } },
{ "type": "Feature", "properties": { "SiteNum": "4", "Area": "KING'S CLIFF" }, "geometry": { "type": "MultiPoint", "coordinates": [ [ 174.472146790020957, -35.508471532477472 ] ] } },
{ "type": "Feature", "properties": { "SiteNum": "6", "Area": "KING'S CLIFF" }, "geometry": { "type": "MultiPoint", "coordinates": [ [ 174.472344708167554, -35.508411359431364 ] ] } },
{ "type": "Feature", "properties": { "SiteNum": "5", "Area": "KING'S CLIFF" }, "geometry": { "type": "MultiPoint", "coordinates": [ [ 174.472326235286687, -35.508348056468613 ] ] } },
{ "type": "Feature", "properties": { "SiteNum": "7", "Area": "KING'S CLIFF" }, "geometry": { "type": "MultiPoint", "coordinates": [ [ 174.472505059934747, -35.508696024447183 ] ] } },
{ "type": "Feature", "properties": { "SiteNum": "9", "Area": "KING'S CLIFF" }, "geometry": { "type": "MultiPoint", "coordinates": [ [ 174.472894675529858, -35.509130733042795 ] ] } },
{ "type": "Feature", "properties": { "SiteNum": "8", "Area": "KING'S CLIFF" }, "geometry": { "type": "MultiPoint", "coordinates": [ [ 174.472629666211446, -35.50894231536769 ] ] } },
{ "type": "Feature", "properties": { "SiteNum": "4", "Area": "BARRON'S VALLEY" }, "geometry": { "type": "MultiPoint", "coordinates": [ [ 174.468762037430679, -35.505278028657408 ] ] } },
{ "type": "Feature", "properties": { "SiteNum": "1", "Area": "BARRON'S VALLEY" }, "geometry": { "type": "MultiPoint", "coordinates": [ [ 174.468628690739479, -35.505073379786367 ] ] } },
{ "type": "Feature", "properties": { "SiteNum": "2", "Area": "BARRON'S VALLEY" }, "geometry": { "type": "MultiPoint", "coordinates": [ [ 174.468476543208965, -35.505162669844957 ] ] } },
{ "type": "Feature", "properties": { "SiteNum": "3", "Area": "BARRON'S VALLEY" }, "geometry": { "type": "MultiPoint", "coordinates": [ [ 174.468566580596558, -35.505290818352471 ] ] } },
{ "type": "Feature", "properties": { "SiteNum": "1", "Area": "BARRON'S CLIFF" }, "geometry": { "type": "MultiPoint", "coordinates": [ [ 174.468738195924686, -35.50459500985427 ] ] } },
{ "type": "Feature", "properties": { "SiteNum": "5", "Area": "BARRON'S VALLEY" }, "geometry": { "type": "MultiPoint", "coordinates": [ [ 174.46881917399503, -35.505174482221328 ] ] } },
{ "type": "Feature", "properties": { "SiteNum": "11", "Area": "BARRON'S VALLEY" }, "geometry": { "type": "MultiPoint", "coordinates": [ [ 174.468785790483338, -35.505695128584257 ] ] } },
{ "type": "Feature", "properties": { "SiteNum": "10", "Area": "BARRON'S VALLEY" }, "geometry": { "type": "MultiPoint", "coordinates": [ [ 174.468692872656874, -35.505640398342244 ] ] } },
{ "type": "Feature", "properties": { "SiteNum": "9", "Area": "BARRON'S VALLEY" }, "geometry": { "type": "MultiPoint", "coordinates": [ [ 174.468578948153578, -35.50554837030537 ] ] } },
{ "type": "Feature", "properties": { "SiteNum": "8", "Area": "BARRON'S VALLEY" }, "geometry": { "type": "MultiPoint", "coordinates": [ [ 174.468503906468015, -35.505478561995254 ] ] } },
{ "type": "Feature", "properties": { "SiteNum": "7", "Area": "BARRON'S VALLEY" }, "geometry": { "type": "MultiPoint", "coordinates": [ [ 174.468434797468859, -35.505411735906321 ] ] } },
{ "type": "Feature", "properties": { "SiteNum": "6", "Area": "BARRON'S VALLEY" }, "geometry": { "type": "MultiPoint", "coordinates": [ [ 174.468373264720839, -35.505350055165032 ] ] } },
{ "type": "Feature", "properties": { "SiteNum": "12", "Area": "BARRON'S VALLEY" }, "geometry": { "type": "MultiPoint", "coordinates": [ [ 174.46841937984783, -35.505584465520045 ] ] } },
{ "type": "Feature", "properties": { "SiteNum": "12q", "Area": "BARRON'S VALLEY" }, "geometry": { "type": "MultiPoint", "coordinates": [ [ 174.468341943747049, -35.505641794781987 ] ] } },
{ "type": "Feature", "properties": { "SiteNum": "13", "Area": "BARRON'S VALLEY" }, "geometry": { "type": "MultiPoint", "coordinates": [ [ 174.468628429315231, -35.50576308207706 ] ] } },
{ "type": "Feature", "properties": { "SiteNum": "14", "Area": "BARRON'S VALLEY" }, "geometry": { "type": "MultiPoint", "coordinates": [ [ 174.468741430472932, -35.505834592427483 ] ] } },
{ "type": "Feature", "properties": { "SiteNum": "15", "Area": "BARRON'S VALLEY" }, "geometry": { "type": "MultiPoint", "coordinates": [ [ 174.468966617675591, -35.505822124223855 ] ] } },
{ "type": "Feature", "properties": { "SiteNum": "16", "Area": "BARRON'S VALLEY" }, "geometry": { "type": "MultiPoint", "coordinates": [ [ 174.469073326682036, -35.50589982926811 ] ] } },
{ "type": "Feature", "properties": { "SiteNum": "17", "Area": "BARRON'S VALLEY" }, "geometry": { "type": "MultiPoint", "coordinates": [ [ 174.469157949018495, -35.505967768381339 ] ] } },
{ "type": "Feature", "properties": { "SiteNum": "18", "Area": "BARRON'S VALLEY" }, "geometry": { "type": "MultiPoint", "coordinates": [ [ 174.469222692169126, -35.50605779959475 ] ] } },
{ "type": "Feature", "properties": { "SiteNum": "19", "Area": "BARRON'S VALLEY" }, "geometry": { "type": "MultiPoint", "coordinates": [ [ 174.469106240611382, -35.505523331094466 ] ] } },
{ "type": "Feature", "properties": { "SiteNum": "22", "Area": "BARRON'S VALLEY" }, "geometry": { "type": "MultiPoint", "coordinates": [ [ 174.469585342269426, -35.50580160039307 ] ] } },
{ "type": "Feature", "properties": { "SiteNum": "20", "Area": "BARRON'S VALLEY" }, "geometry": { "type": "MultiPoint", "coordinates": [ [ 174.469449281266407, -35.505612885918318 ] ] } },
{ "type": "Feature", "properties": { "SiteNum": "21", "Area": "BARRON'S VALLEY" }, "geometry": { "type": "MultiPoint", "coordinates": [ [ 174.469767181804826, -35.50561627374757 ] ] } },
{ "type": "Feature", "properties": { "SiteNum": "9", "Area": "BARRON'S CLIFF" }, "geometry": { "type": "MultiPoint", "coordinates": [ [ 174.469622980410264, -35.505392719288487 ] ] } },
{ "type": "Feature", "properties": { "SiteNum": "10", "Area": "BARRON'S CLIFF" }, "geometry": { "type": "MultiPoint", "coordinates": [ [ 174.469402239269584, -35.505357958410016 ] ] } },
{ "type": "Feature", "properties": { "SiteNum": "8", "Area": "BARRON'S CLIFF" }, "geometry": { "type": "MultiPoint", "coordinates": [ [ 174.469457899035319, -35.505194763908676 ] ] } },
{ "type": "Feature", "properties": { "SiteNum": "2", "Area": "BARRON'S CLIFF" }, "geometry": { "type": "MultiPoint", "coordinates": [ [ 174.46877934624581, -35.504427195072061 ] ] } },
{ "type": "Feature", "properties": { "SiteNum": "3", "Area": "BARRON'S CLIFF" }, "geometry": { "type": "MultiPoint", "coordinates": [ [ 174.468832391707878, -35.504154398505463 ] ] } },
{ "type": "Feature", "properties": { "SiteNum": "4", "Area": "BARRON'S CLIFF" }, "geometry": { "type": "MultiPoint", "coordinates": [ [ 174.469004577434191, -35.50450164845244 ] ] } },
{ "type": "Feature", "properties": { "SiteNum": "5", "Area": "BARRON'S CLIFF" }, "geometry": { "type": "MultiPoint", "coordinates": [ [ 174.469112208463514, -35.504599871147953 ] ] } },
{ "type": "Feature", "properties": { "SiteNum": "6", "Area": "BARRON'S CLIFF" }, "geometry": { "type": "MultiPoint", "coordinates": [ [ 174.469266940125749, -35.504731128861813 ] ] } },
{ "type": "Feature", "properties": { "SiteNum": "7", "Area": "BARRON'S CLIFF" }, "geometry": { "type": "MultiPoint", "coordinates": [ [ 174.469246107560053, -35.504843649656728 ] ] } },
{ "type": "Feature", "properties": { "SiteNum": "20", "Area": "BARRON'S SOUTH" }, "geometry": { "type": "MultiPoint", "coordinates": [ [ 174.469154494454926, -35.506320305574611 ] ] } },
{ "type": "Feature", "properties": { "SiteNum": "17", "Area": "BARRON'S SOUTH" }, "geometry": { "type": "MultiPoint", "coordinates": [ [ 174.469322835236341, -35.506633533719587 ] ] } },
{ "type": "Feature", "properties": { "SiteNum": "18", "Area": "BARRON'S SOUTH" }, "geometry": { "type": "MultiPoint", "coordinates": [ [ 174.469137356702959, -35.506514896815865 ] ] } },
{ "type": "Feature", "properties": { "SiteNum": "19", "Area": "BARRON'S SOUTH" }, "geometry": { "type": "MultiPoint", "coordinates": [ [ 174.468954164186783, -35.50640409290029 ] ] } },
{ "type": "Feature", "properties": { "SiteNum": "11", "Area": "BARRON'S SOUTH" }, "geometry": { "type": "MultiPoint", "coordinates": [ [ 174.469824195821019, -35.506564704338366 ] ] } },
{ "type": "Feature", "properties": { "SiteNum": "12", "Area": "BARRON'S SOUTH" }, "geometry": { "type": "MultiPoint", "coordinates": [ [ 174.46992204643675, -35.506625922933935 ] ] } },
{ "type": "Feature", "properties": { "SiteNum": "13", "Area": "BARRON'S SOUTH" }, "geometry": { "type": "MultiPoint", "coordinates": [ [ 174.470020743579795, -35.506731683743872 ] ] } },
{ "type": "Feature", "properties": { "SiteNum": "14", "Area": "BARRON'S SOUTH" }, "geometry": { "type": "MultiPoint", "coordinates": [ [ 174.470119440983808, -35.506837444464999 ] ] } },
{ "type": "Feature", "properties": { "SiteNum": "15", "Area": "BARRON'S SOUTH" }, "geometry": { "type": "MultiPoint", "coordinates": [ [ 174.470170881321138, -35.50695821977655 ] ] } },
{ "type": "Feature", "properties": { "SiteNum": "16", "Area": "BARRON'S SOUTH" }, "geometry": { "type": "MultiPoint", "coordinates": [ [ 174.470234906862885, -35.507066604900913 ] ] } },
{ "type": "Feature", "properties": { "SiteNum": "21", "Area": "BARRON'S SOUTH" }, "geometry": { "type": "MultiPoint", "coordinates": [ [ 174.469548141497881, -35.506177279513693 ] ] } },
{ "type": "Feature", "properties": { "SiteNum": "2", "Area": "BARRON'S SOUTH" }, "geometry": { "type": "MultiPoint", "coordinates": [ [ 174.469779641860555, -35.506356482457484 ] ] } },
{ "type": "Feature", "properties": { "SiteNum": "2A", "Area": "BARRON'S SOUTH" }, "geometry": { "type": "MultiPoint", "coordinates": [ [ 174.469882423134294, -35.506424190377757 ] ] } },
{ "type": "Feature", "properties": { "SiteNum": "3", "Area": "BARRON'S SOUTH" }, "geometry": { "type": "MultiPoint", "coordinates": [ [ 174.469978989771306, -35.506474068580353 ] ] } },
{ "type": "Feature", "properties": { "SiteNum": "4", "Area": "BARRON'S SOUTH" }, "geometry": { "type": "MultiPoint", "coordinates": [ [ 174.470071627282039, -35.506513950347255 ] ] } },
{ "type": "Feature", "properties": { "SiteNum": "6", "Area": "BARRON'S SOUTH" }, "geometry": { "type": "MultiPoint", "coordinates": [ [ 174.470348510512991, -35.506748048477391 ] ] } },
{ "type": "Feature", "properties": { "SiteNum": "1", "Area": "BARRON'S SOUTH" }, "geometry": { "type": "MultiPoint", "coordinates": [ [ 174.470074738636612, -35.506368458205017 ] ] } },
{ "type": "Feature", "properties": { "SiteNum": "5", "Area": "BARRON'S SOUTH" }, "geometry": { "type": "MultiPoint", "coordinates": [ [ 174.470183064714547, -35.506559271501722 ] ] } },
{ "type": "Feature", "properties": { "SiteNum": "10", "Area": "BARRON'S SOUTH" }, "geometry": { "type": "MultiPoint", "coordinates": [ [ 174.470818098797707, -35.506806289127333 ] ] } },
{ "type": "Feature", "properties": { "SiteNum": "9", "Area": "BARRON'S SOUTH" }, "geometry": { "type": "MultiPoint", "coordinates": [ [ 174.470778750287906, -35.506928218178444 ] ] } },
{ "type": "Feature", "properties": { "SiteNum": "8", "Area": "BARRON'S SOUTH" }, "geometry": { "type": "MultiPoint", "coordinates": [ [ 174.470628760207575, -35.506962447402714 ] ] } },
{ "type": "Feature", "properties": { "SiteNum": "7", "Area": "BARRON'S SOUTH" }, "geometry": { "type": "MultiPoint", "coordinates": [ [ 174.47059218978859, -35.506837115361691 ] ] } }
]
}
